{"fetched_at":"2026-05-07T17:47:49Z","count":3218,"tles":[{"name":"FLAMINGO-1","line1":"1 67391U 26004AE  26126.94848468  .00001849  00000+0  94998-4 0  9990","line2":"2 67391  97.4550 126.4900 0006722 106.8424 253.3548 15.17702954 17494","category":"Other"},{"name":"BRO-18","line1":"1 64550U 25135Y   26127.22136855  .00004676  00000+0  20999-3 0  9990","line2":"2 64550  97.4582 242.5934 0002105  69.1336 291.0125 15.21655892 48648","category":"Other"},{"name":"RUZAEVKA 390 (RS44S)","line1":"1 61766U 24199AH  26069.38481491  .11440096  25250-5  56352-3 0  9990","line2":"2 61766  97.2628 311.9876 0007678 247.6224 112.4264 16.42346068119643","category":"Other"},{"name":"JAS-2 (FO-29)","line1":"1 24278U 96046B   26127.20250969 -.00000041  00000+0 -53495-5 0  9996","line2":"2 24278  98.5285 341.6783 0349448 202.6430 155.8967 13.53272343467622","category":"Other"},{"name":"CARBONITE 1 (CBNT-1)","line1":"1 40718U 15032D   26127.17375637  .00001565  00000+0  19619-3 0  9993","line2":"2 40718  97.6497 306.9643 0015898  71.0337 289.2599 14.83462213583269","category":"Other"},{"name":"COSMOS 2508 (RODNIK-S *)","line1":"1 40921U 15050B   26127.13464552 -.00000056  00000+0 -47794-3 0  9991","line2":"2 40921  82.4840 103.7502 0015295 110.0888 250.1839 12.42912358481749","category":"Other"},{"name":"GONETS-M 16","line1":"1 44907U 19096C   26127.13092111 -.00000052  00000+0 -44968-3 0  9997","line2":"2 44907  82.5162 109.5211 0010128 313.7183  46.3057 12.42890158288538","category":"Other"},{"name":"HOTSAT-1","line1":"1 56954U 23084Y   23362.48072942  .00006094  00000+0  32791-3 0  9991","line2":"2 56954  97.5294 116.6536 0011420 249.0815 110.9195 15.15161566 30053","category":"Other"},{"name":"COSMOS 2419 (714)","line1":"1 28915U 05050A   08024.34439810  .00000035  00000-0  10000-3 0  6024","line2":"2 28915  64.8638 180.6190 0007887 352.2607  34.6530  2.13102053 16209","category":"Other"},{"name":"SL-16 R/B","line1":"1 19120U 88039B   26126.90045058  .00000060  00000+0  51324-4 0  9993","line2":"2 19120  71.0143 305.4607 0023948 252.3463 107.5047 14.19624837966647","category":"Other"},{"name":"COSMOS 1743","line1":"1 16719U 86034A   26127.16498705  .00032341  00000+0  34622-3 0  9995","line2":"2 16719  82.5307  12.2277 0006736  78.1148 282.0866 15.63663858189374","category":"Other"},{"name":"COSMOS 1953","line1":"1 19210U 88050A   26127.00302161  .00006931  00000+0  24180-3 0  9991","line2":"2 19210  82.5062  99.5407 0008627 279.0999  80.9264 15.29399707 46696","category":"Other"},{"name":"CZ-2C R/B","line1":"1 52794U 22058K   26126.93522662  .00035493  00000+0  44065-3 0  9991","line2":"2 52794  50.1879  17.6667 0036964  91.1642 269.3566 15.58788001219207","category":"Other"},{"name":"NAVSTAR 53 (USA 175)","line1":"1 28129U 03058A   26126.01051308 -.00000091  00000+0  00000+0 0  9992","line2":"2 28129  55.0024  24.8288 0002618 330.3147  29.7045  1.92678613163651","category":"GPS"},{"name":"SL-14 R/B","line1":"1 18749U 88001B   26127.13872694  .00000344  00000+0  36816-4 0  9992","line2":"2 18749  82.5111 140.3932 0019230  48.6802 311.6065 14.85578868 50708","category":"Other"},{"name":"OKEAN-3","line1":"1 21397U 91039A   26126.92277970  .00002470  00000+0  17115-3 0  9994","line2":"2 21397  82.5154 280.3925 0015325 130.0518 230.2055 15.05131323873797","category":"Other"},{"name":"SL-16 R/B","line1":"1 22285U 92093B   26127.04212252 -.00000099  00000+0 -26442-4 0  9999","line2":"2 22285  71.0224 241.7644 0006030 236.6517 123.4030 14.15461728721411","category":"Other"},{"name":"COSMOS 1844","line1":"1 17973U 87041A   26127.09303933 -.00000013  00000+0  18318-4 0  9994","line2":"2 17973  70.8980 270.9852 0032766 293.0399  66.7268 14.14557038 11840","category":"Other"},{"name":"GSLV R/B","line1":"1 54149U 22138AN  26127.07899385  .00002036  00000+0  17360-3 0  9996","line2":"2 54149  87.3802 146.7910 0018972 303.2923  56.6491 14.97080421192661","category":"Other"},{"name":"SL-16 R/B","line1":"1 23705U 95058B   26127.14554105 -.00000039  00000+0  46083-5 0  9995","line2":"2 23705  71.0218  57.5260 0011555  21.0956 339.0641 14.15501896576120","category":"Other"},{"name":"COSMOS 1975","line1":"1 19573U 88093A   26127.18748803  .00004990  00000+0  17681-3 0  9997","line2":"2 19573  82.5204  58.9186 0010277 334.1530  25.9195 15.28819833 28347","category":"Other"},{"name":"SL-8 R/B","line1":"1 21938U 92020B   26127.02921963 -.00000020  00000+0 -37161-4 0  9991","line2":"2 21938  82.9271 110.4288 0030062 132.9214 288.9054 13.75547597709152","category":"Other"},{"name":"CZ-2C R/B","line1":"1 43521U 18054D   26059.19164949  .05758169  14813-5  64760-3 0  9997","line2":"2 43521  35.1189   3.8055 0006750 238.6763 121.3328 16.35845045427383","category":"Other"},{"name":"GPS BIIR-14M","line1":"1 28874U 05038A   26126.47765400 -.00000022  00000+0  00000+0 0  9998","line2":"2 28874  54.9136 274.8598 0127755 295.9080  68.6981  2.00568679151000","category":"GPS"},{"name":"SL-4 R/B","line1":"1 39679U 14021B   26127.09048231  .00010197  00000+0  21819-3 0  9998","line2":"2 39679  51.6069  51.9529 0092184 316.6006  42.7746 15.41013579665272","category":"Other"},{"name":"GAOFEN-7","line1":"1 44703U 19072A   26127.22427780  .00003803  00000+0  17120-3 0  9994","line2":"2 44703  97.2448 190.2257 0016593 170.1725 189.9839 15.21541831361410","category":"Other"},{"name":"DELTA 1 R/B","line1":"1 20323U 89089B   26127.11109100  .00000222  00000+0  63911-4 0  9994","line2":"2 20323  97.0655 325.2370 0067547 298.6185  60.8230 14.50704079904205","category":"Other"},{"name":"COSMOS 2151","line1":"1 21422U 91042A   26127.17772936  .00001274  00000+0  99325-4 0  9992","line2":"2 21422  82.4988  27.2518 0011178 216.0807 143.9663 15.00330759871965","category":"Other"},{"name":"COSMOS 2228","line1":"1 22286U 92094A   26127.19435609  .00001424  00000+0  11963-3 0  9992","line2":"2 22286  82.5190 181.3021 0019530 104.4734 255.8657 14.97451348784816","category":"Other"},{"name":"SL-3 R/B","line1":"1 00877U 64053B   26127.20229572  .00000100  00000+0  43715-4 0  9991","line2":"2 00877  65.0753 159.6828 0081277 273.9006  85.2805 14.61405657275349","category":"Other"},{"name":"DMC3-FM1","line1":"1 40715U 15032A   26127.18968882  .00001306  00000+0  15649-3 0  9993","line2":"2 40715  97.6509 353.9616 0005345 172.1909 187.9391 14.85695367583822","category":"Other"},{"name":"EROS B","line1":"1 29079U 06014A   26036.62389918  .16492175  25042-5  34625-3 0  9997","line2":"2 29079  97.3179 162.1754 0012048 287.7254  72.2733 16.46015569 99499","category":"Other"},{"name":"SL-14 R/B","line1":"1 18153U 87055B   26126.93737639  .00000437  00000+0  47415-4 0  9995","line2":"2 18153  82.4969 294.1196 0020691 176.8230 183.3121 14.85678938 78581","category":"Other"},{"name":"GSAT0202 (GALILEO 6)","line1":"1 40129U 14050B   26125.55375754 -.00000042  00000+0  00000+0 0  9998","line2":"2 40129  48.9403 274.2670 1669018 178.4565 182.1452  1.85520749 79696","category":"GPS"},{"name":"BEIDOU-2 IGSO-2","line1":"1 37256U 10068A   26126.82717209 -.00000199  00000+0  00000+0 0  9999","line2":"2 37256  47.6271 272.3432 0052277 211.0703 144.6242  1.00297293 56379","category":"GPS"},{"name":"GSAT0205 (GALILEO 9)","line1":"1 40889U 15045A   26115.63255192 -.00000038  00000+0  00000+0 0  9992","line2":"2 40889  54.9613 223.1764 0005159 266.9978  92.9342  1.67410754 66085","category":"GPS"},{"name":"CZ-4B R/B","line1":"1 28415U 04035C   26127.13368727  .00006121  00000+0  20994-3 0  9993","line2":"2 28415  97.3399 160.6833 0033063 119.8573 240.5960 15.30002805188847","category":"Other"},{"name":"SL-14 R/B","line1":"1 19574U 88093B   26127.13465631  .00000327  00000+0  34737-4 0  9990","line2":"2 19574  82.5316 347.1919 0020041 200.8308 285.0968 14.85711382  9697","category":"Other"},{"name":"SL-8 R/B","line1":"1 20775U 90078B   26127.20624068  .00019435  00000+0  56018-3 0  9995","line2":"2 20775  82.9040 198.6243 0355247 176.3536 184.0413 14.90937220818012","category":"Other"},{"name":"ASTRO-H (HITOMI)","line1":"1 41337U 16012A   26126.92978744  .00002552  00000+0  14605-3 0  9997","line2":"2 41337  31.0005 340.6052 0009548 199.0150 161.0132 15.10341936561043","category":"Other"},{"name":"SL-16 R/B","line1":"1 28353U 04021B   26127.14832390 -.00000050  00000+0 -13998-5 0  9997","line2":"2 28353  70.9978 109.8136 0006867 297.4513  62.5911 14.14601540131105","category":"Other"},{"name":"SL-14 R/B","line1":"1 13553U 82092B   26126.99873112  .00000441  00000+0  46618-4 0  9992","line2":"2 13553  82.5664  86.8383 0021897 106.4580 323.3705 14.86715721337599","category":"Other"},{"name":"SL-14 R/B","line1":"1 16792U 86046B   26127.20299564  .00000389  00000+0  41835-4 0  9998","line2":"2 16792  82.4845  24.8996 0024073  37.7383 322.5516 14.85644459135095","category":"Other"},{"name":"SL-8 R/B","line1":"1 19257U 88053B   26127.13626749  .00000193  00000+0  70993-4 0  9998","line2":"2 19257  74.0490   4.7313 0020152 173.6931 299.7538 14.38947540985008","category":"Other"},{"name":"SL-14 R/B","line1":"1 20511U 90018B   26127.16850745  .00000273  00000+0  31305-4 0  9998","line2":"2 20511  82.5216 168.4481 0014717 258.2202 101.7361 14.82191580931245","category":"Other"},{"name":"BEIDOU-2 G1","line1":"1 36287U 10001A   26127.21697219 -.00000271  00000+0  00000+0 0  9992","line2":"2 36287   4.1983  60.5181 0003430 303.6489  79.5048  1.00272559 59768","category":"GPS"},{"name":"CZ-2C R/B","line1":"1 37731U 11030B   26127.16747565  .00000864  00000+0  11476-3 0  9994","line2":"2 37731  97.8628  83.3054 0052876 158.4782 212.8965 14.81379714798753","category":"Other"},{"name":"NAVSTAR 52 (USA 168)","line1":"1 27704U 03010A   26126.49724580 -.00000069  00000+0  00000+0 0  9994","line2":"2 27704  54.8382 326.7155 0003428   0.5774 176.0461  1.94743269169108","category":"GPS"},{"name":"SL-16 R/B","line1":"1 31793U 07029B   26127.19177411  .00000115  00000+0  84576-4 0  9990","line2":"2 31793  70.9775  49.4058 0002673 269.3560 241.2028 14.14851495973649","category":"Other"}]}